     3.03           N: GNSS NAV DATA    M: Mixed            RINEX VERSION / TYPE
RTKCONV 2.4.3 b34                       20260605 044112 UTC PGM / RUN BY / DATE 
format: Javad GREIS                                         COMMENT             
log: C:\Users\USER\OneDrive\Desktop\GNSS_ML_Project\data\sadCOMMENT             
                                                            END OF HEADER       
C42 2026 06 02 05 59 46 -.892444048077D-03 -.319744231092D-13  .000000000000D+00
      .260000000000D+02 -.127777343750D+03  .303209058446D-08  .207527340210D+00
     -.636931508780D-05  .144368573092D-02  .799726694822D-05  .528263371610D+04
      .194400000000D+06 -.372529029846D-08  .305148500594D+01 -.372529029846D-07
      .987359226858D+00  .209632812500D+03 -.751263356769D+00 -.638687318176D-08
      .753602819154D-10  .000000000000D+00  .106500000000D+04  .000000000000D+00
      .570000000000D+01  .000000000000D+00 -.271829776466D-07 -.122236087918D-08
      .194386000000D+06  .260000000000D+02
S29 2026  6  2  6 30 24  .502914190292D-07  .000000000000D+00  .196232000000D+06
     -.350683360000D+03 -.169249999523D-02  .000000000000D+00  .000000000000D+00
      .421519506400D+05  .212500002235D-04  .000000000000D+00  .819200000000D+04
      .250480000000D+02  .128000006080D-03  .000000000000D+00  .000000000000D+00
R12 2026 06 02 06 45 00  .697886571288D-04  .000000000000D+00  .196230000000D+06
      .144747500000D+05 -.199119377136D+01 -.931322574615D-09  .000000000000D+00
      .137493520508D+05 -.884005546570D+00  .000000000000D+00 -.100000000000D+01
     -.158518061523D+05 -.257945919037D+01  .186264514923D-08  .000000000000D+00
R01 2026 06 02 06 45 00  .171924009919D-03  .909494701773D-12  .196230000000D+06
      .786013183594D+04  .365460395813D+00 -.931322574615D-09  .000000000000D+00
      .230494667969D+05  .985708236694D+00  .186264514923D-08  .100000000000D+01
     -.755780175781D+04  .338798522949D+01  .279396772385D-08  .000000000000D+00
S27 2026  6  2  6 31 28  .000000000000D+00  .000000000000D+00  .196263000000D+06
      .241080718400D+05  .198624992371D-02  .274999998510D-06  .000000000000D+00
      .345817071200D+05  .182374989986D-02 -.274999998510D-06  .819200000000D+04
     -.937712800000D+03  .884840011597D-01  .493750022724D-05  .000000000000D+00
S28 2026  6  2  6 31 28  .409781932831D-07  .409272615798D-10  .196263000000D+06
      .512161144000D+04 -.803124964237D-03  .999999974738D-07  .000000000000D+00
      .418499501600D+05  .610624969006D-03  .749999962864D-07  .409600000000D+04
      .116692000000D+02 -.316000014544D-03 -.625000029686D-07  .000000000000D+00
R26 2026 06 02 06 45 00 -.272132456303D-04  .000000000000D+00  .196260000000D+06
     -.259171777344D+04 -.101419448853D+00  .000000000000D+00  .100000000000D+01
      .218481494141D+05 -.177160835266D+01  .465661287308D-08 -.600000000000D+01
      .129076811523D+05  .298510742188D+01  .279396772385D-08  .000000000000D+00
R07 2026 06 02 06 45 00  .121948309243D-03  .000000000000D+00  .196260000000D+06
     -.857699804688D+04 -.366904258728D+00  .000000000000D+00  .000000000000D+00
      .102931582031D+05 -.294743442535D+01  .372529029846D-08  .500000000000D+01
      .217575791016D+05  .124784469604D+01  .000000000000D+00  .000000000000D+00
S29 2026  6  2  6 31 28  .502914190292D-07  .000000000000D+00  .196292000000D+06
     -.350791680000D+03 -.169187498093D-02  .000000000000D+00  .000000000000D+00
      .421519521600D+05  .262499991804D-04  .000000000000D+00  .819200000000D+04
      .250560000000D+02  .120000004768D-03  .000000000000D+00  .000000000000D+00
E14 2026 06 02 06 20 00  .339677277952D-02  .119811716104D-09  .346944695195D-17
      .720000000000D+02  .451562500000D+02  .760817405384D-08 -.541907064673D+00
      .246800482273D-05  .167486707680D+00  .345334410667D-05  .528930789948D+04
      .195600000000D+06  .219792127609D-05  .430796135383D+00 -.225380063057D-06
      .854072604124D+00  .235187500000D+03  .313083793233D+01 -.114297618097D-07
     -.221794952936D-09  .517000000000D+03  .242100000000D+04  .000000000000D+00
      .360000000000D+01  .200000000000D+02 -.488944351673D-08 -.558793544769D-08
      .196294000000D+06  .000000000000D+00
S23 2026  6  2  6 32 16  .000000000000D+00  .000000000000D+00  .196345000000D+06
      .386679640000D+05  .000000000000D+00  .000000000000D+00  .000000000000D+00
      .168133080000D+05  .000000000000D+00  .000000000000D+00  .819200000000D+04
      .000000000000D+00  .000000000000D+00  .000000000000D+00  .000000000000D+00
S29 2026  6  2  6 32 16  .502914190292D-07  .000000000000D+00  .196352000000D+06
     -.350872880000D+03 -.169187498093D-02  .000000000000D+00  .000000000000D+00
      .421519534400D+05  .293749999255D-04  .000000000000D+00  .819200000000D+04
      .250616000000D+02  .116000004113D-03  .000000000000D+00  .000000000000D+00
R13 2026 06 02 06 45 00 -.694561749697D-04  .000000000000D+00  .196350000000D+06
      .236891943359D+05 -.938091278076D-01 -.186264514923D-08  .000000000000D+00
      .940015185547D+04 -.190825462341D+00  .931322574615D-09 -.200000000000D+01
     -.113530517578D+04 -.355739116669D+01  .931322574615D-09  .000000000000D+00
S29 2026  6  2  6 33 20  .502914190292D-07  .000000000000D+00  .196412000000D+06
     -.350981200000D+03 -.169124996662D-02  .000000000000D+00  .000000000000D+00
      .421519555200D+05  .343750007451D-04  .000000000000D+00  .819200000000D+04
      .250688000000D+02  .108000002801D-03  .000000000000D+00  .000000000000D+00
S32 2026  6  2  6 31 28  .000000000000D+00  .000000000000D+00  .196426000000D+06
     -.258840088000D+04 -.273312497139D-02  .249999993684D-07  .000000000000D+00
      .420666772800D+05  .693750008941D-04  .112499998068D-06  .819200000000D+04
      .682600000000D+01  .764000058174D-03 -.625000029686D-07  .000000000000D+00
S29 2026  6  2  6 34 24  .502914190292D-07  .000000000000D+00  .196472000000D+06
     -.351089440000D+03 -.169124996662D-02  .000000000000D+00  .000000000000D+00
      .421519578400D+05  .387500002980D-04  .000000000000D+00  .819200000000D+04
      .250756000000D+02  .100000001490D-03  .000000000000D+00  .000000000000D+00
S23 2026  6  2  6 34 56  .000000000000D+00  .000000000000D+00  .196497000000D+06
      .386679640000D+05  .000000000000D+00  .000000000000D+00  .000000000000D+00
      .168133080000D+05  .000000000000D+00  .000000000000D+00  .819200000000D+04
      .000000000000D+00  .000000000000D+00  .000000000000D+00  .000000000000D+00
S27 2026  6  2  6 35 44  .000000000000D+00  .000000000000D+00  .196519000000D+06
      .241085675200D+05  .204062485695D-02  .262499990640D-06  .000000000000D+00
      .345821409600D+05  .174249994755D-02 -.274999998510D-06  .819200000000D+04
     -.914898000000D+03  .897480010986D-01  .481250043958D-05  .000000000000D+00
S32 2026  6  2  6 35 44  .000000000000D+00  .000000000000D+00  .196520000000D+06
     -.258909952000D+04 -.272562503815D-02  .374999981432D-07  .000000000000D+00
      .420666986400D+05  .974999964237D-04  .112499998068D-06  .819200000000D+04
      .702080000000D+01  .756000041962D-03 -.625000029686D-07  .000000000000D+00
S29 2026  6  2  6 35 28  .502914190292D-07  .000000000000D+00  .196532000000D+06
     -.351197680000D+03 -.169062495232D-02  .000000000000D+00  .000000000000D+00
      .421519604800D+05  .437499992549D-04  .000000000000D+00  .819200000000D+04
      .250816000000D+02  .920000076294D-04  .000000000000D+00  .000000000000D+00
R22 2026 06 02 06 45 00  .128711573780D-03  .181898940355D-11  .196530000000D+06
     -.127421928711D+05 -.138205432892D+01  .931322574615D-09  .000000000000D+00
      .176416845703D+05  .119186973572D+01  .372529029846D-08 -.300000000000D+01
      .133327084961D+05 -.290174102783D+01  .931322574615D-09  .000000000000D+00
C22 2026 06 02 05 59 46  .454916968010D-03  .878408457083D-12  .000000000000D+00
      .260000000000D+02 -.130464843750D+03  .294208683544D-08  .461707671932D+00
     -.647269189358D-05  .859264750034D-03  .746734440327D-05  .528264069116D+04
      .194400000000D+06 -.316649675369D-07  .305705785631D+01 -.838190317154D-08
      .988943159715D+00  .224613281250D+03  .515143265145D+00 -.633794257218D-08
      .453590322429D-10  .000000000000D+00  .106500000000D+04  .000000000000D+00
      .200000000000D+01  .000000000000D+00  .173458829522D-07 -.401632860303D-08
      .194386000000D+06  .260000000000D+02
S29 2026  6  2  6 36 16  .502914190292D-07  .000000000000D+00  .196592000000D+06
     -.351278880000D+03 -.168999993801D-02  .000000000000D+00  .000000000000D+00
      .421519626400D+05  .468750000000D-04  .000000000000D+00  .819200000000D+04
      .250856000000D+02  .840000063181D-04  .000000000000D+00  .000000000000D+00
S28 2026  6  2  6 35 44  .512227416039D-07  .454747350886D-10  .196603000000D+06
      .512140912000D+04 -.786875009537D-03  .112499998068D-06  .000000000000D+00
      .418501089600D+05  .610000014305D-03  .749999962864D-07  .409600000000D+04
      .115864000000D+02 -.332000017166D-03 -.625000029686D-07  .000000000000D+00
S29 2026  6  2  6 37 20  .502914190292D-07  .000000000000D+00  .196652000000D+06
     -.351387120000D+03 -.168999993801D-02  .000000000000D+00  .000000000000D+00
      .421519658400D+05  .518749989569D-04  .000000000000D+00  .819200000000D+04
      .250908000000D+02  .760000050068D-04  .000000000000D+00  .000000000000D+00
S23 2026  6  2  6 37 20  .000000000000D+00  .000000000000D+00  .196653000000D+06
      .386679640000D+05  .000000000000D+00  .000000000000D+00  .000000000000D+00
      .168133080000D+05  .000000000000D+00  .000000000000D+00  .819200000000D+04
      .000000000000D+00  .000000000000D+00  .000000000000D+00  .000000000000D+00
